{
    "links": {
        "self": "http://www.neowsapp.com/rest/v1/neo/3789469?api_key=iIulBulltgU6a56xZRHN4H3l9WmuAYTsLGpBGhQ2"
    },
    "id": "3789469",
    "neo_reference_id": "3789469",
    "name": "(2017 WF1)",
    "designation": "2017 WF1",
    "nasa_jpl_url": "http://ssd.jpl.nasa.gov/sbdb.cgi?sstr=3789469",
    "absolute_magnitude_h": 23.2,
    "estimated_diameter": {
        "kilometers": {
            "estimated_diameter_min": 0.0608912622,
            "estimated_diameter_max": 0.1361570015
        },
        "meters": {
            "estimated_diameter_min": 60.8912622106,
            "estimated_diameter_max": 136.1570015386
        },
        "miles": {
            "estimated_diameter_min": 0.0378360645,
            "estimated_diameter_max": 0.0846040122
        },
        "feet": {
            "estimated_diameter_min": 199.7744887109,
            "estimated_diameter_max": 446.7093369279
        }
    },
    "is_potentially_hazardous_asteroid": false,
    "close_approach_data": [
        {
            "close_approach_date": "1989-11-07",
            "close_approach_date_full": "1989-Nov-07 22:53",
            "epoch_date_close_approach": 626482380000,
            "relative_velocity": {
                "kilometers_per_second": "5.0507165684",
                "kilometers_per_hour": "18182.5796463039",
                "miles_per_hour": "11297.9478918936"
            },
            "miss_distance": {
                "astronomical": "0.2081754799",
                "lunar": "80.9802616811",
                "kilometers": "31142608.379267813",
                "miles": "19351119.5235412994"
            },
            "orbiting_body": "Earth"
        },
        {
            "close_approach_date": "2017-11-05",
            "close_approach_date_full": "2017-Nov-05 12:32",
            "epoch_date_close_approach": 1509885120000,
            "relative_velocity": {
                "kilometers_per_second": "5.3669900817",
                "kilometers_per_hour": "19321.1642940502",
                "miles_per_hour": "12005.4201137114"
            },
            "miss_distance": {
                "astronomical": "0.2247738553",
                "lunar": "87.4370297117",
                "kilometers": "33625689.984568211",
                "miles": "20894034.8871388718"
            },
            "orbiting_body": "Earth"
        },
        {
            "close_approach_date": "2098-11-09",
            "close_approach_date_full": "2098-Nov-09 21:42",
            "epoch_date_close_approach": 4066407720000,
            "relative_velocity": {
                "kilometers_per_second": "5.0223594052",
                "kilometers_per_hour": "18080.4938586778",
                "miles_per_hour": "11234.5157534656"
            },
            "miss_distance": {
                "astronomical": "0.216927049",
                "lunar": "84.384622061",
                "kilometers": "32451824.47578563",
                "miles": "20164628.682996494"
            },
            "orbiting_body": "Earth"
        }
    ],
    "orbital_data": {
        "orbit_id": "6",
        "orbit_determination_date": "2019-07-27 14:00:53",
        "first_observation_date": "2017-11-17",
        "last_observation_date": "2017-12-23",
        "data_arc_in_days": 36,
        "observations_used": 25,
        "orbit_uncertainty": "6",
        "minimum_orbit_intersection": ".20921",
        "jupiter_tisserand_invariant": "3.579",
        "epoch_osculation": "2459000.5",
        "eccentricity": ".4385569582893382",
        "semi_major_axis": "2.133702863661422",
        "inclination": "7.922013275364686",
        "ascending_node_longitude": "54.9185903057964",
        "orbital_period": "1138.411664473417",
        "perihelion_distance": "1.197952625880818",
        "perihelion_argument": "349.3154842432321",
        "aphelion_distance": "3.069453101442027",
        "perihelion_time": "2459207.217693109373",
        "mean_anomaly": "294.6296495004757",
        "mean_motion": ".3162300696967307",
        "equinox": "J2000",
        "orbit_class": {
            "orbit_class_type": "AMO",
            "orbit_class_description": "Near-Earth asteroid orbits similar to that of 1221 Amor",
            "orbit_class_range": "1.017 AU < q (perihelion) < 1.3 AU"
        }
    },
    "is_sentry_object": false
}